{
  "type": "FeatureCollection",
  "features": [
    {
      "type": "Feature",
      "properties": {
        "norad_id": 35445,
        "name": "COSMOS 2251 DEB",
        "group": "cosmos-2251-debris",
        "lat": 69.14159272003958,
        "lon": 54.65016530609477,
        "alt_km": 696.361663714617,
        "timestamp": "2025-12-21T11:31:43.255618+00:00",
        "meta_object_name": "COSMOS 2251 DEB",
        "meta_object_id": "1993-036AKP",
        "meta_epoch": "2025-12-20T02:09:32.474016",
        "meta_mean_motion": 14.59298517,
        "meta_eccentricity": 0.0143911,
        "meta_inclination": 74.0379,
        "meta_ra_of_asc_node": 285.9917,
        "meta_arg_of_pericenter": 11.2111,
        "meta_mean_anomaly": 349.2201,
        "meta_ephemeris_type": 0,
        "meta_classification_type": "U",
        "meta_norad_cat_id": 35445,
        "meta_element_set_no": 999,
        "meta_rev_at_epoch": 87436,
        "meta_bstar": 0.001392614,
        "meta_mean_motion_dot": 7.582e-05,
        "meta_mean_motion_ddot": 0,
        "tle_line1": "1 35445U 93036AKP 25354.08995919  .00007582  00000+0  13926-2 0  9995",
        "tle_line2": "2 35445  74.0379 285.9917 0143911  11.2111 349.2201 14.59298517874360"
      },
      "geometry": {
        "type": "Point",
        "coordinates": [
          54.65016530609477,
          69.14159272003958
        ]
      }
    },
    {
      "type": "Feature",
      "properties": {
        "norad_id": 35446,
        "name": "COSMOS 2251 DEB",
        "group": "cosmos-2251-debris",
        "lat": -7.373306502557862,
        "lon": -60.46657700987881,
        "alt_km": 691.3163659661004,
        "timestamp": "2025-12-21T11:31:43.255628+00:00",
        "meta_object_name": "COSMOS 2251 DEB",
        "meta_object_id": "1993-036AKQ",
        "meta_epoch": "2025-12-21T03:18:38.739168",
        "meta_mean_motion": 14.54636922,
        "meta_eccentricity": 0.0074679,
        "meta_inclination": 74.0475,
        "meta_ra_of_asc_node": 302.3018,
        "meta_arg_of_pericenter": 58.0955,
        "meta_mean_anomaly": 302.7443,
        "meta_ephemeris_type": 0,
        "meta_classification_type": "U",
        "meta_norad_cat_id": 35446,
        "meta_element_set_no": 999,
        "meta_rev_at_epoch": 88130,
        "meta_bstar": 8.6238e-05,
        "meta_mean_motion_dot": 3.52e-06,
        "meta_mean_motion_ddot": 0,
        "tle_line1": "1 35446U 93036AKQ 25355.13794837  .00000352  00000+0  86238-4 0  9995",
        "tle_line2": "2 35446  74.0475 302.3018 0074679  58.0955 302.7443 14.54636922881308"
      },
      "geometry": {
        "type": "Point",
        "coordinates": [
          -60.46657700987881,
          -7.373306502557862
        ]
      }
    },
    {
      "type": "Feature",
      "properties": {
        "norad_id": 35448,
        "name": "COSMOS 2251 DEB",
        "group": "cosmos-2251-debris",
        "lat": -20.908744337875174,
        "lon": -100.81565773870359,
        "alt_km": 711.2869358740654,
        "timestamp": "2025-12-21T11:31:43.255639+00:00",
        "meta_object_name": "COSMOS 2251 DEB",
        "meta_object_id": "1993-036AKS",
        "meta_epoch": "2025-12-17T15:48:08.057376",
        "meta_mean_motion": 14.54306329,
        "meta_eccentricity": 0.00121573,
        "meta_inclination": 73.9037,
        "meta_ra_of_asc_node": 80.133,
        "meta_arg_of_pericenter": 263.1799,
        "meta_mean_anomaly": 96.798,
        "meta_ephemeris_type": 0,
        "meta_classification_type": "U",
        "meta_norad_cat_id": 35448,
        "meta_element_set_no": 999,
        "meta_rev_at_epoch": 87406,
        "meta_bstar": 0.00080210225,
        "meta_mean_motion_dot": 3.379e-05,
        "meta_mean_motion_ddot": 0,
        "tle_line1": "1 35448U 93036AKS 25351.65842659  .00003379  00000+0  80210-3 0  9991",
        "tle_line2": "2 35448  73.9037  80.1330 0012157 263.1799  96.7980 14.54306329874064"
      },
      "geometry": {
        "type": "Point",
        "coordinates": [
          -100.81565773870359,
          -20.908744337875174
        ]
      }
    },
    {
      "type": "Feature",
      "properties": {
        "norad_id": 35451,
        "name": "COSMOS 2251 DEB",
        "group": "cosmos-2251-debris",
        "lat": -73.77854453980338,
        "lon": 1.621702705824499,
        "alt_km": 447.8836307984293,
        "timestamp": "2025-12-21T11:31:43.255650+00:00",
        "meta_object_name": "COSMOS 2251 DEB",
        "meta_object_id": "1993-036AKV",
        "meta_epoch": "2025-12-19T23:57:44.472096",
        "meta_mean_motion": 15.3628162,
        "meta_eccentricity": 0.0041565,
        "meta_inclination": 73.9333,
        "meta_ra_of_asc_node": 86.979,
        "meta_arg_of_pericenter": 332.0017,
        "meta_mean_anomaly": 27.8952,
        "meta_ephemeris_type": 0,
        "meta_classification_type": "U",
        "meta_norad_cat_id": 35451,
        "meta_element_set_no": 999,
        "meta_rev_at_epoch": 67517,
        "meta_bstar": 0.0009808021,
        "meta_mean_motion_dot": 0.00035831,
        "meta_mean_motion_ddot": 0,
        "tle_line1": "1 35451U 93036AKV 25353.99843139  .00035831  00000+0  98080-3 0  9990",
        "tle_line2": "2 35451  73.9333  86.9790 0041565 332.0017  27.8952 15.36281620675177"
      },
      "geometry": {
        "type": "Point",
        "coordinates": [
          1.621702705824499,
          -73.77854453980338
        ]
      }
    },
    {
      "type": "Feature",
      "properties": {
        "norad_id": 35453,
        "name": "COSMOS 2251 DEB",
        "group": "cosmos-2251-debris",
        "lat": 70.00780013129732,
        "lon": 132.23508173625433,
        "alt_km": 718.1679080775984,
        "timestamp": "2025-12-21T11:31:43.255660+00:00",
        "meta_object_name": "COSMOS 2251 DEB",
        "meta_object_id": "1993-036AKX",
        "meta_epoch": "2025-12-16T19:11:22.117056",
        "meta_mean_motion": 14.38003213,
        "meta_eccentricity": 0.00669431,
        "meta_inclination": 74.0096,
        "meta_ra_of_asc_node": 12.8823,
        "meta_arg_of_pericenter": 145.8531,
        "meta_mean_anomaly": 214.6957,
        "meta_ephemeris_type": 0,
        "meta_classification_type": "U",
        "meta_norad_cat_id": 35453,
        "meta_element_set_no": 999,
        "meta_rev_at_epoch": 86277,
        "meta_bstar": 0.00051941791,
        "meta_mean_motion_dot": 1.586e-05,
        "meta_mean_motion_ddot": 0,
        "tle_line1": "1 35453U 93036AKX 25350.79956154  .00001586  00000+0  51942-3 0  9995",
        "tle_line2": "2 35453  74.0096  12.8823 0066943 145.8531 214.6957 14.38003213862776"
      },
      "geometry": {
        "type": "Point",
        "coordinates": [
          132.23508173625433,
          70.00780013129732
        ]
      }
    },
    {
      "type": "Feature",
      "properties": {
        "norad_id": 35455,
        "name": "COSMOS 2251 DEB",
        "group": "cosmos-2251-debris",
        "lat": -43.51804905001195,
        "lon": -97.38637847682881,
        "alt_km": 703.65883900471,
        "timestamp": "2025-12-21T11:31:43.255671+00:00",
        "meta_object_name": "COSMOS 2251 DEB",
        "meta_object_id": "1993-036AKZ",
        "meta_epoch": "2025-12-20T19:10:19.793280",
        "meta_mean_motion": 14.49490073,
        "meta_eccentricity": 0.00996755,
        "meta_inclination": 74.029,
        "meta_ra_of_asc_node": 279.6724,
        "meta_arg_of_pericenter": 21.2905,
        "meta_mean_anomaly": 339.2356,
        "meta_ephemeris_type": 0,
        "meta_classification_type": "U",
        "meta_norad_cat_id": 35455,
        "meta_element_set_no": 999,
        "meta_rev_at_epoch": 86660,
        "meta_bstar": 0.00090539181,
        "meta_mean_motion_dot": 3.669e-05,
        "meta_mean_motion_ddot": 0,
        "tle_line1": "1 35455U 93036AKZ 25354.79884020  .00003669  00000+0  90539-3 0  9992",
        "tle_line2": "2 35455  74.0290 279.6724 0099675  21.2905 339.2356 14.49490073866606"
      },
      "geometry": {
        "type": "Point",
        "coordinates": [
          -97.38637847682881,
          -43.51804905001195
        ]
      }
    },
    {
      "type": "Feature",
      "properties": {
        "norad_id": 35456,
        "name": "COSMOS 2251 DEB",
        "group": "cosmos-2251-debris",
        "lat": -43.74708621939963,
        "lon": -63.54961585227856,
        "alt_km": 662.19787682877,
        "timestamp": "2025-12-21T11:31:43.255681+00:00",
        "meta_object_name": "COSMOS 2251 DEB",
        "meta_object_id": "1993-036ALA",
        "meta_epoch": "2025-12-16T14:29:43.540224",
        "meta_mean_motion": 14.69499444,
        "meta_eccentricity": 0.00664454,
        "meta_inclination": 73.9504,
        "meta_ra_of_asc_node": 109.9489,
        "meta_arg_of_pericenter": 318.8739,
        "meta_mean_anomaly": 40.7432,
        "meta_ephemeris_type": 0,
        "meta_classification_type": "U",
        "meta_norad_cat_id": 35456,
        "meta_element_set_no": 999,
        "meta_rev_at_epoch": 65932,
        "meta_bstar": 0.0012425086,
        "meta_mean_motion_dot": 7.595e-05,
        "meta_mean_motion_ddot": 0,
        "tle_line1": "1 35456U 93036ALA 25350.60397616  .00007595  00000+0  12425-2 0  9998",
        "tle_line2": "2 35456  73.9504 109.9489 0066445 318.8739  40.7432 14.69499444659326"
      },
      "geometry": {
        "type": "Point",
        "coordinates": [
          -63.54961585227856,
          -43.74708621939963
        ]
      }
    }
  ]
}